TIANMU-1 07             
1 57399U 23101A   26065.57454230  .00008352  00000+0  29795-3 0  9991
2 57399  97.2728 118.5929 0004609 142.4105 217.7458 15.29118809145964
STARLINK-31736          
1 59547U 24074P   26068.09466869 -.00003520  00000+0 -11846-3 0  9991
2 59547  43.0078 339.9225 0001472 268.2918  91.7765 15.27578592106000
